start=new Date('2023-02-18T00:00:00.000Z').valueOf();
sats=[{"PERIOD":"95.438","LAUNCH_DATE":"2022-09-05","OBJECT_TYPE":"PAYLOAD","EPOCH":"2023-02-17T16:09:45.436320","ELEMENT_SET_NO":"999","REV_AT_EPOCH":"2658","REF_FRAME":"TEME","SITE":"AFETR","TLE_LINE1":"1 53707U 22107H   23048.67344255 -.00001332  00000-0 -65588-4 0  9994","MEAN_ANOMALY":"275.6031","APOAPSIS":"541.396","PERIAPSIS":"538.110","OBJECT_NAME":"STARLINK-4667","EPHEMERIS_TYPE":"0","NORAD_CAT_ID":"53707","BSTAR":"-0.00006558800000","RA_OF_ASC_NODE":"199.1241","CLASSIFICATION_TYPE":"U","ARG_OF_PERICENTER":"84.5231","MEAN_ELEMENT_THEORY":"SGP4","SEMIMAJOR_AXIS":"6917.888","OBJECT_ID":"2022-107H","INCLINATION":"53.2110","MEAN_MOTION_DOT":"-0.00001332","RCS_SIZE":"LARGE","COUNTRY_CODE":"US","TLE_LINE2":"2 53707  53.2110 199.1241 0002375  84.5231 275.6031 15.08837385 26586","MEAN_MOTION_DDOT":"0.0000000000000","ECCENTRICITY":"0.00023750","GP_ID":"225838933","DECAY_DATE":null,"MEAN_MOTION":"15.08837385","FILE":"3804075","TIME_SYSTEM":"UTC","CENTER_NAME":"EARTH"},{"BSTAR":"0.00002915900000","RA_OF_ASC_NODE":"199.3081","OBJECT_NAME":"STARLINK-4694","EPHEMERIS_TYPE":"0","NORAD_CAT_ID":"53708","APOAPSIS":"540.392","PERIAPSIS":"539.126","MEAN_ANOMALY":"265.2464","REF_FRAME":"TEME","REV_AT_EPOCH":"2658","SITE":"AFETR","TLE_LINE1":"1 53708U 22107J   23048.70387576  .00000176  00000-0  29159-4 0  9999","EPOCH":"2023-02-17T16:53:34.865664","OBJECT_TYPE":"PAYLOAD","ELEMENT_SET_NO":"999","PERIOD":"95.438","LAUNCH_DATE":"2022-09-05","TIME_SYSTEM":"UTC","CENTER_NAME":"EARTH","MEAN_MOTION":"15.08835567","FILE":"3804075","GP_ID":"225838684","DECAY_DATE":null,"RCS_SIZE":"LARGE","COUNTRY_CODE":"US","TLE_LINE2":"2 53708  53.2184 199.3081 0000915  94.8633 265.2464 15.08835567 26585","MEAN_MOTION_DDOT":"0.0000000000000","ECCENTRICITY":"0.00009150","MEAN_MOTION_DOT":"0.00000176","OBJECT_ID":"2022-107J","INCLINATION":"53.2184","SEMIMAJOR_AXIS":"6917.894","MEAN_ELEMENT_THEORY":"SGP4","CLASSIFICATION_TYPE":"U","ARG_OF_PERICENTER":"94.8633"},{"FILE":"3804075","MEAN_MOTION":"15.08843288","CENTER_NAME":"EARTH","TIME_SYSTEM":"UTC","ECCENTRICITY":"0.00010500","MEAN_MOTION_DDOT":"0.0000000000000","TLE_LINE2":"2 53709  53.2162 218.0848 0001050  85.1174 274.9938 15.08843288 26027","COUNTRY_CODE":"US","RCS_SIZE":"LARGE","DECAY_DATE":null,"GP_ID":"225839935","OBJECT_ID":"2022-107K","INCLINATION":"53.2162","MEAN_MOTION_DOT":"0.00002065","ARG_OF_PERICENTER":"85.1174","CLASSIFICATION_TYPE":"U","SEMIMAJOR_AXIS":"6917.870","MEAN_ELEMENT_THEORY":"SGP4","NORAD_CAT_ID":"53709","EPHEMERIS_TYPE":"0","OBJECT_NAME":"STARLINK-4685","RA_OF_ASC_NODE":"218.0848","BSTAR":"0.00014779000000","PERIAPSIS":"539.009","APOAPSIS":"540.462","TLE_LINE1":"1 53709U 22107K   23048.85284799  .00002065  00000-0  14779-3 0  9999","SITE":"AFETR","REV_AT_EPOCH":"2602","REF_FRAME":"TEME","MEAN_ANOMALY":"274.9938","LAUNCH_DATE":"2022-09-05","PERIOD":"95.437","ELEMENT_SET_NO":"999","EPOCH":"2023-02-17T20:28:06.066336","OBJECT_TYPE":"PAYLOAD"},{"SITE":"AFETR","TLE_LINE1":"1 53711U 22107M   23048.85557681  .00017935  00000-0  11418-2 0  9993","REV_AT_EPOCH":"2602","REF_FRAME":"TEME","MEAN_ANOMALY":"264.1942","LAUNCH_DATE":"2022-09-05","PERIOD":"95.437","OBJECT_TYPE":"PAYLOAD","EPOCH":"2023-02-17T20:32:01.836384","ELEMENT_SET_NO":"999","NORAD_CAT_ID":"53711","OBJECT_NAME":"STARLINK-4627","EPHEMERIS_TYPE":"0","RA_OF_ASC_NODE":"218.0978","BSTAR":"0.00114180000000","APOAPSIS":"540.476","PERIAPSIS":"538.962","INCLINATION":"53.2165","OBJECT_ID":"2022-107M","MEAN_MOTION_DOT":"0.00017935","ARG_OF_PERICENTER":"95.9174","CLASSIFICATION_TYPE":"U","MEAN_ELEMENT_THEORY":"SGP4","SEMIMAJOR_AXIS":"6917.854","FILE":"3804075","MEAN_MOTION":"15.08848567","TIME_SYSTEM":"UTC","CENTER_NAME":"EARTH","TLE_LINE2":"2 53711  53.2165 218.0978 0001094  95.9174 264.1942 15.08848567 26025","ECCENTRICITY":"0.00010940","MEAN_MOTION_DDOT":"0.0000000000000","COUNTRY_CODE":"US","RCS_SIZE":"LARGE","DECAY_DATE":null,"GP_ID":"225839686"},{"PERIOD":"95.438","LAUNCH_DATE":"2022-09-05","ELEMENT_SET_NO":"999","OBJECT_TYPE":"PAYLOAD","EPOCH":"2023-02-17T18:47:24.587808","REV_AT_EPOCH":"2603","REF_FRAME":"TEME","TLE_LINE1":"1 53712U 22107N   23048.78292347 -.00000459  00000-0 -10762-4 0  9999","SITE":"AFETR","MEAN_ANOMALY":"270.0841","PERIAPSIS":"538.994","APOAPSIS":"540.518","EPHEMERIS_TYPE":"0","OBJECT_NAME":"STARLINK-4683","NORAD_CAT_ID":"53712","BSTAR":"-0.00001076200000","RA_OF_ASC_NODE":"218.3659","CLASSIFICATION_TYPE":"U","ARG_OF_PERICENTER":"90.0277","MEAN_ELEMENT_THEORY":"SGP4","SEMIMAJOR_AXIS":"6917.891","OBJECT_ID":"2022-107N","INCLINATION":"53.2156","MEAN_MOTION_DOT":"-0.00000459","RCS_SIZE":"LARGE","COUNTRY_CODE":"US","ECCENTRICITY":"0.00011020","MEAN_MOTION_DDOT":"0.0000000000000","TLE_LINE2":"2 53712  53.2156 218.3659 0001102  90.0277 270.0841 15.08836520 26036","DECAY_DATE":null,"GP_ID":"225838434","MEAN_MOTION":"15.08836520","FILE":"3804075","CENTER_NAME":"EARTH","TIME_SYSTEM":"UTC"},{"OBJECT_TYPE":"PAYLOAD","EPOCH":"2023-02-17T21:42:51.806592","ELEMENT_SET_NO":"999","PERIOD":"95.437","LAUNCH_DATE":"2022-09-05","MEAN_ANOMALY":"291.3111","REF_FRAME":"TEME","REV_AT_EPOCH":"2596","SITE":"AFETR","TLE_LINE1":"1 53713U 22107P   23048.90476628  .00001177  00000-0  92023-4 0  9996","APOAPSIS":"540.273","PERIAPSIS":"539.184","BSTAR":"0.00009202300000","RA_OF_ASC_NODE":"222.6688","OBJECT_NAME":"STARLINK-4698","EPHEMERIS_TYPE":"0","NORAD_CAT_ID":"53713","SEMIMAJOR_AXIS":"6917.863","MEAN_ELEMENT_THEORY":"SGP4","CLASSIFICATION_TYPE":"U","ARG_OF_PERICENTER":"68.7966","MEAN_MOTION_DOT":"0.00001177","OBJECT_ID":"2022-107P","INCLINATION":"53.2165","GP_ID":"225839184","DECAY_DATE":null,"COUNTRY_CODE":"US","RCS_SIZE":"LARGE","TLE_LINE2":"2 53713  53.2165 222.6688 0000787  68.7966 291.3111 15.08845579 25963","ECCENTRICITY":"0.00007870","MEAN_MOTION_DDOT":"0.0000000000000","TIME_SYSTEM":"UTC","CENTER_NAME":"EARTH","MEAN_MOTION":"15.08845579","FILE":"3804075"},{"MEAN_MOTION_DOT":"-0.00000075","INCLINATION":"53.2142","OBJECT_ID":"2022-107Q","MEAN_ELEMENT_THEORY":"SGP4","SEMIMAJOR_AXIS":"6917.981","ARG_OF_PERICENTER":"77.9906","CLASSIFICATION_TYPE":"U","CENTER_NAME":"EARTH","TIME_SYSTEM":"UTC","FILE":"3804075","MEAN_MOTION":"15.08807121","DECAY_DATE":null,"GP_ID":"225839436","MEAN_MOTION_DDOT":"0.0000000000000","ECCENTRICITY":"0.00019580","TLE_LINE2":"2 53714  53.2142 197.7965 0001958  77.9906 282.1305 15.08807121 26310","RCS_SIZE":"LARGE","COUNTRY_CODE":"US","MEAN_ANOMALY":"282.1305","TLE_LINE1":"1 53714U 22107Q   23048.91629923 -.00000075  00000-0  13397-4 0  9990","SITE":"AFETR","REF_FRAME":"TEME","REV_AT_EPOCH":"2631","ELEMENT_SET_NO":"999","EPOCH":"2023-02-17T21:59:28.253472","OBJECT_TYPE":"PAYLOAD","LAUNCH_DATE":"2022-09-05","PERIOD":"95.440","RA_OF_ASC_NODE":"197.7965","BSTAR":"0.00001339700000","NORAD_CAT_ID":"53714","EPHEMERIS_TYPE":"0","OBJECT_NAME":"STARLINK-4688","PERIAPSIS":"538.491","APOAPSIS":"541.200"},{"CENTER_NAME":"EARTH","TIME_SYSTEM":"UTC","MEAN_MOTION":"15.08839148","FILE":"3804075","GP_ID":"225840186","DECAY_DATE":null,"RCS_SIZE":"LARGE","COUNTRY_CODE":"US","ECCENTRICITY":"0.00010670","MEAN_MOTION_DDOT":"0.0000000000000","TLE_LINE2":"2 53715  53.2173 223.0339 0001067  84.5074 275.6040 15.08839148 25961","MEAN_MOTION_DOT":"0.00000176","INCLINATION":"53.2173","OBJECT_ID":"2022-107R","MEAN_ELEMENT_THEORY":"SGP4","SEMIMAJOR_AXIS":"6917.883","CLASSIFICATION_TYPE":"U","ARG_OF_PERICENTER":"84.5074","BSTAR":"0.00002915500000","RA_OF_ASC_NODE":"223.0339","EPHEMERIS_TYPE":"0","OBJECT_NAME":"STARLINK-4686","NORAD_CAT_ID":"53715","PERIAPSIS":"539.010","APOAPSIS":"540.486","MEAN_ANOMALY":"275.6040","REV_AT_EPOCH":"2596","REF_FRAME":"TEME","TLE_LINE1":"1 53715U 22107R   23048.84958272  .00000176  00000-0  29155-4 0  9995","SITE":"AFETR","ELEMENT_SET_NO":"999","OBJECT_TYPE":"PAYLOAD","EPOCH":"2023-02-17T20:23:23.947008","PERIOD":"95.438","LAUNCH_DATE":"2022-09-05"},{"LAUNCH_DATE":"2022-09-05","PERIOD":"95.438","ELEMENT_SET_NO":"999","OBJECT_TYPE":"PAYLOAD","EPOCH":"2023-02-17T18:42:42.477120","TLE_LINE1":"1 53716U 22107S   23048.77965830 -.00001351  00000-0 -66797-4 0  9997","SITE":"AFETR","REF_FRAME":"TEME","REV_AT_EPOCH":"2594","MEAN_ANOMALY":"273.8203","PERIAPSIS":"538.965","APOAPSIS":"540.556","NORAD_CAT_ID":"53716","EPHEMERIS_TYPE":"0","OBJECT_NAME":"STARLINK-4699","RA_OF_ASC_NODE":"223.3100","BSTAR":"-0.00006679700000","ARG_OF_PERICENTER":"86.2920","CLASSIFICATION_TYPE":"U","SEMIMAJOR_AXIS":"6917.896","MEAN_ELEMENT_THEORY":"SGP4","OBJECT_ID":"2022-107S","INCLINATION":"53.2167","MEAN_MOTION_DOT":"-0.00001351","ECCENTRICITY":"0.00011500","MEAN_MOTION_DDOT":"0.0000000000000","TLE_LINE2":"2 53716  53.2167 223.3100 0001150  86.2920 273.8203 15.08834981 25945","COUNTRY_CODE":"US","RCS_SIZE":"LARGE","DECAY_DATE":null,"GP_ID":"225838934","FILE":"3804075","MEAN_MOTION":"15.08834981","CENTER_NAME":"EARTH","TIME_SYSTEM":"UTC"},{"ARG_OF_PERICENTER":"100.3692","CLASSIFICATION_TYPE":"U","MEAN_ELEMENT_THEORY":"SGP4","SEMIMAJOR_AXIS":"6917.896","OBJECT_ID":"2022-107U","INCLINATION":"53.2183","MEAN_MOTION_DOT":"-0.00000166","MEAN_MOTION_DDOT":"0.0000000000000","ECCENTRICITY":"0.00011760","TLE_LINE2":"2 53718  53.2183 223.2891 0001176 100.3692 259.7432 15.08835041 25948","RCS_SIZE":"LARGE","COUNTRY_CODE":"US","DECAY_DATE":null,"GP_ID":"225838685","FILE":"3804075","MEAN_MOTION":"15.08835041","CENTER_NAME":"EARTH","TIME_SYSTEM":"UTC","LAUNCH_DATE":"2022-09-05","PERIOD":"95.438","ELEMENT_SET_NO":"999","EPOCH":"2023-02-17T18:37:24.621024","OBJECT_TYPE":"PAYLOAD","TLE_LINE1":"1 53718U 22107U   23048.77597941 -.00000166  00000-0  76430-5 0  9991","SITE":"AFETR","REF_FRAME":"TEME","REV_AT_EPOCH":"2594","MEAN_ANOMALY":"259.7432","PERIAPSIS":"538.947","APOAPSIS":"540.574","NORAD_CAT_ID":"53718","EPHEMERIS_TYPE":"0","OBJECT_NAME":"STARLINK-4695","RA_OF_ASC_NODE":"223.2891","BSTAR":"0.00000764300000"}];
